ONEWEB-0665             
1 55825U 23029AF  24214.55500584 -.00000110  00000+0 -33103-3 0  9992
2 55825  87.8928  65.9082 0001726  71.9777 288.1541 13.14504356 69469
ONEWEB-0666             
1 55826U 23029AG  24215.55587226  .00000076  00000+0  15414-3 0  9996
2 55826  87.9183  50.4722 0002151  95.8592 264.2786 13.20770908 71595
ONEWEB-0667             
1 55827U 23029AH  24215.54955975  .00000083  00000+0  17335-3 0  9998
2 55827  87.9183  50.4068 0001891  77.4552 282.6792 13.20772187 71582
ONEWEB-0669             
1 55828U 23029AJ  24215.54483313  .00000041  00000+0  69826-4 0  9998
2 55828  87.9183  50.4450 0002590  87.9159 272.2270 13.20771091 71583
ONEWEB-0670             
1 55829U 23029AK  24215.14177685 -.00000031  00000+0 -11717-3 0  9993
2 55829  87.8934  65.7985 0002012  69.1130 291.0215 13.14502486 70253
ONEWEB-0671             
1 55830U 23029AL  24214.89276070  .00000176  00000+0  40615-3 0  9991
2 55830  87.9119  81.1328 0001876  71.6784 288.4553 13.19725287 68640
ONEWEB-0672             
1 55831U 23029AM  24215.08556778  .00000798  00000+0  19303-2 0  9999
2 55831  87.9185  50.5207 0002055  95.9246 264.2121 13.20767071 71525
ONEWEB-0673             
1 55832U 23029AN  24215.55141627  .00000981  00000+0  24190-2 0  9999
2 55832  87.9117  80.9679 0001727  72.1549 287.9772 13.19722248 69446
